ONEWEB-0216             
1 48801U 21045AL  23309.44243741  .00000221  00000+0  55430-3 0  9993
2 48801  87.8965  89.2914 0001693  83.5848 276.5475 13.15544782118774
ONEWEB-0239             
1 48802U 21045AM  23309.37115511  .00000202  00000+0  50130-3 0  9990
2 48802  87.8974  89.2614 0000626  82.6282 277.4919 13.15551104118802
ONEWEB-0249             
1 48967U 21060A   23309.60627783  .00000074  00000+0  15873-3 0  9996
2 48967  87.9081  58.7558 0001649 101.3941 258.7375 13.16593912114009
ONEWEB-0250             
1 48968U 21060B   23309.61049856  .00000107  00000+0  24738-3 0  9994
2 48968  87.9078  58.7399 0001309 101.4569 258.6709 13.16598185113982
ONEWEB-0252             
1 48970U 21060D   23309.56196108  .00000056  00000+0  11282-3 0  9997
2 48970  87.9083  58.7577 0001699  95.0342 265.0983 13.16595422114043
ONEWEB-0253             
1 48971U 21060E   23309.55139449  .00000094  00000+0  21236-3 0  9994
2 48971  87.9007  58.8061 0001382  89.9799 270.1490 13.16594978113972
ONEWEB-0254             
1 48972U 21060F   23309.55983434  .00000047  00000+0  89286-4 0  9994
2 48972  87.9082  58.7476 0001379  93.6275 266.5013 13.16598059113976
ONEWEB-0255             
1 48973U 21060G   23309.36985099  .00000153  00000+0  36750-3 0  9998
2 48973  87.9080  58.8209 0001740  99.4026 260.7302 13.16597029114020
