<?xml version="1.0" encoding="UTF-8"?>
<ndm xmlns:xsi="http://www.w3.org/2001/XMLSchema-instance" xsi:noNamespaceSchemaLocation="https://sanaregistry.org/r/ndmxml_unqualified/ndmxml-2.0.0-master-2.0.xsd">
<omm id="CCSDS_OMM_VERS" version="2.0">
<header><CREATION_DATE/><ORIGINATOR/></header><body><segment><metadata><OBJECT_NAME>ONEWEB-0216</OBJECT_NAME><OBJECT_ID>2021-045AL</OBJECT_ID><CENTER_NAME>EARTH</CENTER_NAME><REF_FRAME>TEME</REF_FRAME><TIME_SYSTEM>UTC</TIME_SYSTEM><MEAN_ELEMENT_THEORY>SGP4</MEAN_ELEMENT_THEORY></metadata><data><meanElements><EPOCH>2023-11-05T10:37:06.592224</EPOCH><MEAN_MOTION>13.15544782</MEAN_MOTION><ECCENTRICITY>.0001693</ECCENTRICITY><INCLINATION>87.8965</INCLINATION><RA_OF_ASC_NODE>89.2914</RA_OF_ASC_NODE><ARG_OF_PERICENTER>83.5848</ARG_OF_PERICENTER><MEAN_ANOMALY>276.5475</MEAN_ANOMALY></meanElements><tleParameters><EPHEMERIS_TYPE>0</EPHEMERIS_TYPE><CLASSIFICATION_TYPE>U</CLASSIFICATION_TYPE><NORAD_CAT_ID>48801</NORAD_CAT_ID><ELEMENT_SET_NO>999</ELEMENT_SET_NO><REV_AT_EPOCH>11877</REV_AT_EPOCH><BSTAR>.5543E-3</BSTAR><MEAN_MOTION_DOT>.221E-5</MEAN_MOTION_DOT><MEAN_MOTION_DDOT>0</MEAN_MOTION_DDOT></tleParameters></data></segment></body></omm>
<omm id="CCSDS_OMM_VERS" version="2.0">
<header><CREATION_DATE/><ORIGINATOR/></header><body><segment><metadata><OBJECT_NAME>ONEWEB-0239</OBJECT_NAME><OBJECT_ID>2021-045AM</OBJECT_ID><CENTER_NAME>EARTH</CENTER_NAME><REF_FRAME>TEME</REF_FRAME><TIME_SYSTEM>UTC</TIME_SYSTEM><MEAN_ELEMENT_THEORY>SGP4</MEAN_ELEMENT_THEORY></metadata><data><meanElements><EPOCH>2023-11-05T08:54:27.801504</EPOCH><MEAN_MOTION>13.15551104</MEAN_MOTION><ECCENTRICITY>.0000626</ECCENTRICITY><INCLINATION>87.8974</INCLINATION><RA_OF_ASC_NODE>89.2614</RA_OF_ASC_NODE><ARG_OF_PERICENTER>82.6282</ARG_OF_PERICENTER><MEAN_ANOMALY>277.4919</MEAN_ANOMALY></meanElements><tleParameters><EPHEMERIS_TYPE>0</EPHEMERIS_TYPE><CLASSIFICATION_TYPE>U</CLASSIFICATION_TYPE><NORAD_CAT_ID>48802</NORAD_CAT_ID><ELEMENT_SET_NO>999</ELEMENT_SET_NO><REV_AT_EPOCH>11880</REV_AT_EPOCH><BSTAR>.5013E-3</BSTAR><MEAN_MOTION_DOT>.202E-5</MEAN_MOTION_DOT><MEAN_MOTION_DDOT>0</MEAN_MOTION_DDOT></tleParameters></data></segment></body></omm>
<omm id="CCSDS_OMM_VERS" version="2.0">
<header><CREATION_DATE/><ORIGINATOR/></header><body><segment><metadata><OBJECT_NAME>ONEWEB-0249</OBJECT_NAME><OBJECT_ID>2021-060A</OBJECT_ID><CENTER_NAME>EARTH</CENTER_NAME><REF_FRAME>TEME</REF_FRAME><TIME_SYSTEM>UTC</TIME_SYSTEM><MEAN_ELEMENT_THEORY>SGP4</MEAN_ELEMENT_THEORY></metadata><data><meanElements><EPOCH>2023-11-05T14:33:02.404512</EPOCH><MEAN_MOTION>13.16593912</MEAN_MOTION><ECCENTRICITY>.0001649</ECCENTRICITY><INCLINATION>87.9081</INCLINATION><RA_OF_ASC_NODE>58.7558</RA_OF_ASC_NODE><ARG_OF_PERICENTER>101.3941</ARG_OF_PERICENTER><MEAN_ANOMALY>258.7375</MEAN_ANOMALY></meanElements><tleParameters><EPHEMERIS_TYPE>0</EPHEMERIS_TYPE><CLASSIFICATION_TYPE>U</CLASSIFICATION_TYPE><NORAD_CAT_ID>48967</NORAD_CAT_ID><ELEMENT_SET_NO>999</ELEMENT_SET_NO><REV_AT_EPOCH>11400</REV_AT_EPOCH><BSTAR>.15873E-3</BSTAR><MEAN_MOTION_DOT>.74E-6</MEAN_MOTION_DOT><MEAN_MOTION_DDOT>0</MEAN_MOTION_DDOT></tleParameters></data></segment></body></omm>
<omm id="CCSDS_OMM_VERS" version="2.0">
<header><CREATION_DATE/><ORIGINATOR/></header><body><segment><metadata><OBJECT_NAME>ONEWEB-0250</OBJECT_NAME><OBJECT_ID>2021-060B</OBJECT_ID><CENTER_NAME>EARTH</CENTER_NAME><REF_FRAME>TEME</REF_FRAME><TIME_SYSTEM>UTC</TIME_SYSTEM><MEAN_ELEMENT_THEORY>SGP4</MEAN_ELEMENT_THEORY></metadata><data><meanElements><EPOCH>2023-11-05T14:39:07.075584</EPOCH><MEAN_MOTION>13.16598185</MEAN_MOTION><ECCENTRICITY>.0001309</ECCENTRICITY><INCLINATION>87.9078</INCLINATION><RA_OF_ASC_NODE>58.7399</RA_OF_ASC_NODE><ARG_OF_PERICENTER>101.4569</ARG_OF_PERICENTER><MEAN_ANOMALY>258.6709</MEAN_ANOMALY></meanElements><tleParameters><EPHEMERIS_TYPE>0</EPHEMERIS_TYPE><CLASSIFICATION_TYPE>U</CLASSIFICATION_TYPE><NORAD_CAT_ID>48968</NORAD_CAT_ID><ELEMENT_SET_NO>999</ELEMENT_SET_NO><REV_AT_EPOCH>11398</REV_AT_EPOCH><BSTAR>.24738E-3</BSTAR><MEAN_MOTION_DOT>.107E-5</MEAN_MOTION_DOT><MEAN_MOTION_DDOT>0</MEAN_MOTION_DDOT></tleParameters></data></segment></body></omm>
<omm id="CCSDS_OMM_VERS" version="2.0">
<header><CREATION_DATE/><ORIGINATOR/></header><body><segment><metadata><OBJECT_NAME>ONEWEB-0252</OBJECT_NAME><OBJECT_ID>2021-060D</OBJECT_ID><CENTER_NAME>EARTH</CENTER_NAME><REF_FRAME>TEME</REF_FRAME><TIME_SYSTEM>UTC</TIME_SYSTEM><MEAN_ELEMENT_THEORY>SGP4</MEAN_ELEMENT_THEORY></metadata><data><meanElements><EPOCH>2023-11-05T13:29:13.437312</EPOCH><MEAN_MOTION>13.16595422</MEAN_MOTION><ECCENTRICITY>.0001699</ECCENTRICITY><INCLINATION>87.9083</INCLINATION><RA_OF_ASC_NODE>58.7577</RA_OF_ASC_NODE><ARG_OF_PERICENTER>95.0342</ARG_OF_PERICENTER><MEAN_ANOMALY>265.0983</MEAN_ANOMALY></meanElements><tleParameters><EPHEMERIS_TYPE>0</EPHEMERIS_TYPE><CLASSIFICATION_TYPE>U</CLASSIFICATION_TYPE><NORAD_CAT_ID>48970</NORAD_CAT_ID><ELEMENT_SET_NO>999</ELEMENT_SET_NO><REV_AT_EPOCH>11404</REV_AT_EPOCH><BSTAR>.11282E-3</BSTAR><MEAN_MOTION_DOT>.56E-6</MEAN_MOTION_DOT><MEAN_MOTION_DDOT>0</MEAN_MOTION_DDOT></tleParameters></data></segment></body></omm>
<omm id="CCSDS_OMM_VERS" version="2.0">
<header><CREATION_DATE/><ORIGINATOR/></header><body><segment><metadata><OBJECT_NAME>ONEWEB-0253</OBJECT_NAME><OBJECT_ID>2021-060E</OBJECT_ID><CENTER_NAME>EARTH</CENTER_NAME><REF_FRAME>TEME</REF_FRAME><TIME_SYSTEM>UTC</TIME_SYSTEM><MEAN_ELEMENT_THEORY>SGP4</MEAN_ELEMENT_THEORY></metadata><data><meanElements><EPOCH>2023-11-05T13:14:00.483936</EPOCH><MEAN_MOTION>13.16594978</MEAN_MOTION><ECCENTRICITY>.0001382</ECCENTRICITY><INCLINATION>87.9007</INCLINATION><RA_OF_ASC_NODE>58.8061</RA_OF_ASC_NODE><ARG_OF_PERICENTER>89.9799</ARG_OF_PERICENTER><MEAN_ANOMALY>270.1490</MEAN_ANOMALY></meanElements><tleParameters><EPHEMERIS_TYPE>0</EPHEMERIS_TYPE><CLASSIFICATION_TYPE>U</CLASSIFICATION_TYPE><NORAD_CAT_ID>48971</NORAD_CAT_ID><ELEMENT_SET_NO>999</ELEMENT_SET_NO><REV_AT_EPOCH>11397</REV_AT_EPOCH><BSTAR>.21236E-3</BSTAR><MEAN_MOTION_DOT>.94E-6</MEAN_MOTION_DOT><MEAN_MOTION_DDOT>0</MEAN_MOTION_DDOT></tleParameters></data></segment></body></omm>
<omm id="CCSDS_OMM_VERS" version="2.0">
<header><CREATION_DATE/><ORIGINATOR/></header><body><segment><metadata><OBJECT_NAME>ONEWEB-0254</OBJECT_NAME><OBJECT_ID>2021-060F</OBJECT_ID><CENTER_NAME>EARTH</CENTER_NAME><REF_FRAME>TEME</REF_FRAME><TIME_SYSTEM>UTC</TIME_SYSTEM><MEAN_ELEMENT_THEORY>SGP4</MEAN_ELEMENT_THEORY></metadata><data><meanElements><EPOCH>2023-11-05T13:26:09.686976</EPOCH><MEAN_MOTION>13.16598059</MEAN_MOTION><ECCENTRICITY>.0001379</ECCENTRICITY><INCLINATION>87.9082</INCLINATION><RA_OF_ASC_NODE>58.7476</RA_OF_ASC_NODE><ARG_OF_PERICENTER>93.6275</ARG_OF_PERICENTER><MEAN_ANOMALY>266.5013</MEAN_ANOMALY></meanElements><tleParameters><EPHEMERIS_TYPE>0</EPHEMERIS_TYPE><CLASSIFICATION_TYPE>U</CLASSIFICATION_TYPE><NORAD_CAT_ID>48972</NORAD_CAT_ID><ELEMENT_SET_NO>999</ELEMENT_SET_NO><REV_AT_EPOCH>11397</REV_AT_EPOCH><BSTAR>.89286E-4</BSTAR><MEAN_MOTION_DOT>.47E-6</MEAN_MOTION_DOT><MEAN_MOTION_DDOT>0</MEAN_MOTION_DDOT></tleParameters></data></segment></body></omm>
<omm id="CCSDS_OMM_VERS" version="2.0">
<header><CREATION_DATE/><ORIGINATOR/></header><body><segment><metadata><OBJECT_NAME>ONEWEB-0255</OBJECT_NAME><OBJECT_ID>2021-060G</OBJECT_ID><CENTER_NAME>EARTH</CENTER_NAME><REF_FRAME>TEME</REF_FRAME><TIME_SYSTEM>UTC</TIME_SYSTEM><MEAN_ELEMENT_THEORY>SGP4</MEAN_ELEMENT_THEORY></metadata><data><meanElements><EPOCH>2023-11-05T08:52:35.125536</EPOCH><MEAN_MOTION>13.16597029</MEAN_MOTION><ECCENTRICITY>.000174</ECCENTRICITY><INCLINATION>87.9080</INCLINATION><RA_OF_ASC_NODE>58.8209</RA_OF_ASC_NODE><ARG_OF_PERICENTER>99.4026</ARG_OF_PERICENTER><MEAN_ANOMALY>260.7302</MEAN_ANOMALY></meanElements><tleParameters><EPHEMERIS_TYPE>0</EPHEMERIS_TYPE><CLASSIFICATION_TYPE>U</CLASSIFICATION_TYPE><NORAD_CAT_ID>48973</NORAD_CAT_ID><ELEMENT_SET_NO>999</ELEMENT_SET_NO><REV_AT_EPOCH>11402</REV_AT_EPOCH><BSTAR>.3675E-3</BSTAR><MEAN_MOTION_DOT>.153E-5</MEAN_MOTION_DOT><MEAN_MOTION_DDOT>0</MEAN_MOTION_DDOT></tleParameters></data></segment></body></omm>

</ndm>
